ONEWEB-0671             
1 55830U 23029AL  24097.75582751  .00000018  00000+0  11550-4 0  9993
2 55830  87.9099 104.4949 0001768  81.8799 278.2534 13.19723578 53195
ONEWEB-0672             
1 55831U 23029AM  24097.96555160  .00000097  00000+0  20781-3 0  9993
2 55831  87.9159  73.8577 0002279  89.1515 270.9879 13.20769172 55380
ONEWEB-0673             
1 55832U 23029AN  24097.95959421  .00000162  00000+0  37337-3 0  9999
2 55832  87.9098 104.4221 0001700  84.9495 275.1832 13.19725091 53225
ONEWEB-0674             
1 55833U 23029AP  24097.96476957  .00000354  00000+0  91994-3 0  9991
2 55833  87.8901  89.1708 0001888  67.6835 292.4495 13.14505152 54159
ONEWEB-0675             
1 55834U 23029AQ  24097.97537231  .00000157  00000+0  35997-3 0  9998
2 55834  87.9102 104.4488 0002125 102.3525 257.7846 13.19723653 53244
